     3.02           N: GNSS NAV DATA    C: BEIDOU           RINEX VERSION / TYPE
Spider v7.4.1.8151  SMO                 20200603 040431 UTC PGM / RUN BY / DATE
BDSA   6.5193D-09  1.1921D-07 -8.3447D-07  1.3709D-06       IONOSPHERIC CORR
BDSB   1.2493D+05 -6.7174D+05  6.2259D+06 -6.1604D+06       IONOSPHERIC CORR
BDUT -3.7252902985D-09-9.769962617D-15 273185  752          TIME SYSTEM CORR
     4     4   573     6                                    LEAP SECONDS
                                                            END OF HEADER
C01 2020 06 03 02 00 00-4.543960094452D-04 3.551292593329D-11 0.000000000000D+00
     0.000000000000D+00 8.076250000000D+02 4.378396756266D-09-2.524352776031D+00
     2.648681402206D-05 5.575796822086D-04-5.341134965420D-06 6.493320602417D+03
     2.664000000000D+05 3.539025783539D-08-2.633888487799D+00-1.005828380585D-07
     6.996002094997D-02 1.557343750000D+02 1.972493893671D+00-3.315495211709D-09
     4.403754860771D-10                    7.520000000000D+02                   
     2.000000000000D+00 0.000000000000D+00-5.199999986161D-09-1.019999995577D-08
     2.664004000000D+05 0.000000000000D+00                                      
C02 2020 06 03 02 00 00 3.083839546889D-04-2.554134681532D-11 0.000000000000D+00
     1.000000000000D+00 6.929843750000D+02 5.654164247915D-09 2.282157323870D-02
     2.291239798069D-05 2.380083315074D-04-4.936940968037D-06 6.493494726181D+03
     2.664000000000D+05 1.145526766777D-07-2.653354466361D+00 1.192092895508D-07
     1.188676515662D-01 1.467031250000D+02-1.610465410303D+00-4.815557730353D-09
     4.114457108351D-10                    7.520000000000D+02                   
     2.000000000000D+00 0.000000000000D+00 1.199999988266D-09-1.370000024536D-08
     2.664004000000D+05 0.000000000000D+00                                      
C03 2020 06 03 02 00 00 8.790961001068D-04-1.725730669477D-11 0.000000000000D+00
     1.000000000000D+00 6.932812500000D+02 5.006637326943D-09-7.272579163428D-01
     2.296688035131D-05 9.348326129839D-04-2.233311533928D-06 6.493566291809D+03
     2.664000000000D+05-1.033768057823D-07-2.714705027161D+00 1.108273863792D-07
     1.082920031852D-01 6.468750000000D+01-3.373961159825D-01-4.177674206574D-09
     4.746626425245D-10                    7.520000000000D+02                   
     2.000000000000D+00 0.000000000000D+00 2.299999968258D-09-8.099999782019D-09
     2.664004000000D+05 0.000000000000D+00                                      
C04 2020 06 03 02 00 00-1.868770923465D-04 1.969535645685D-11 0.000000000000D+00
     1.000000000000D+00 8.224687500000D+02 4.810557729940D-09-1.109362043531D+00
     2.702418714762D-05 3.191566793248D-04-8.521601557732D-07 6.493424697876D+03
     2.664000000000D+05-4.656612873077D-08-2.689533621277D+00 3.771856427193D-08
     9.544571722866D-02 1.660937500000D+01 8.832697235693D-01-3.664081260624D-09
     4.250177154663D-10                    7.520000000000D+02                   
     2.000000000000D+00 0.000000000000D+00 5.700000027531D-09-8.399999806841D-09
     2.664004000000D+05 0.000000000000D+00                                      
C05 2020 06 03 02 00 00-3.900097217411D-04-6.540190611304D-11 0.000000000000D+00
     1.000000000000D+00 7.250312500000D+02 5.557017068725D-09-5.168506602417D-01
     2.393778413534D-05 4.684461746365D-04-5.535315722227D-06 6.493495178223D+03
     2.664000000000D+05 1.103617250919D-07-2.703415110491D+00 7.916241884232D-09
     1.086597851791D-01 1.688750000000D+02-1.461927781743D+00-4.558046828862D-09
     3.635865775120D-10                    7.520000000000D+02                   
     2.000000000000D+00 0.000000000000D+00 1.000000013351D-10-9.299999881307D-09
     2.664004000000D+05 0.000000000000D+00                                      
C06 2020 06 03 02 00 00 7.445792434737D-04 8.580691712723D-12 0.000000000000D+00
     1.000000000000D+00-2.714062500000D+02 1.408987260199D-09-2.905531060403D-01
    -8.952338248491D-06 9.582791593857D-03 1.699710264802D-05 6.493587499619D+03
     2.664000000000D+05-8.800998330116D-08-1.148563284374D+00 1.071020960808D-08
     9.445871741444D-01-2.925937500000D+02-2.194000429199D+00-2.078657912463D-09
    -1.065044386017D-09                    7.520000000000D+02                   
     2.000000000000D+00 0.000000000000D+00 8.399999806841D-09-1.800000037910D-09
     2.664000000000D+05 0.000000000000D+00                                      
C07 2020 06 03 02 00 00-8.356873877347D-05-3.073274967846D-11 0.000000000000D+00
     1.000000000000D+00 3.850312500000D+02 1.762930579297D-09-1.852922524381D+00
     1.250719651580D-05 7.463436573744D-03-1.099379733205D-05 6.493656600952D+03
     2.664000000000D+05-1.406297087669D-07 8.643486819920D-01 3.492459654808D-08
     8.990106752889D-01 5.565468750000D+02-2.641493514248D+00-2.971195289803D-09
     3.489430966397D-10                    7.520000000000D+02                   
     2.000000000000D+00 0.000000000000D+00 1.450000031156D-08 5.999999941331D-10
     2.664000000000D+05 0.000000000000D+00                                      
C08 2020 06 03 02 00 00-2.886370057240D-04-2.232347640074D-11 0.000000000000D+00
     7.000000000000D+00-1.566406250000D+02 1.546492933713D-10 2.369909610511D+00
    -4.421453922987D-06 4.551814054139D-03 2.489099279046D-05 6.493688091278D+03
     2.664000000000D+05 1.615844666958D-07 3.016232517460D+00-3.175809979439D-07
     1.034891778848D+00-4.943750000000D+02-2.730493656844D+00-1.288982254266D-09
     8.971802190061D-10                    7.520000000000D+02                   
     2.000000000000D+00 0.000000000000D+00 1.100000002197D-08-9.999999717181D-10
     2.664000000000D+05 0.000000000000D+00                                      
C09 2020 06 03 02 00 00 5.837870994583D-04 2.592859260631D-11 0.000000000000D+00
     1.000000000000D+00-1.862187500000D+02 1.178620534503D-09-6.676343595938D-01
    -6.661284714937D-06 7.215172867291D-03 1.778686419129D-05 6.493835426331D+03
     2.664000000000D+05-1.378357410431D-07-1.106326100843D+00 5.913898348808D-08
     9.493240326650D-01-3.086250000000D+02-2.322360299331D+00-1.961153017760D-09
    -1.089688228539D-09                    7.520000000000D+02                   
     2.000000000000D+00 0.000000000000D+00 6.900000126819D-09 3.400000059273D-09
     2.664000000000D+05 0.000000000000D+00                                      
C10 2020 06 03 02 00 00-2.726770471781D-04 1.044409003725D-11 0.000000000000D+00
     1.000000000000D+00 4.021718750000D+02 1.763644896791D-09-2.310449037465D+00
     1.320801675320D-05 6.457575247623D-03-1.040194183588D-05 6.493726469040D+03
     2.664000000000D+05 7.823109626770D-08 8.571523875403D-01 1.862645149231D-08
     9.006216889541D-01 5.433437500000D+02-2.615667967470D+00-2.996553449819D-09
     2.635824059016D-10                    7.520000000000D+02                   
     2.000000000000D+00 0.000000000000D+00 6.200000068901D-09 2.599999993080D-09
     2.664000000000D+05 0.000000000000D+00                                      
C11 2020 06 03 01 00 00-4.041306674480D-04-2.374722640752D-11 0.000000000000D+00
     1.000000000000D+00-1.351562500000D+02 3.134773329805D-09-2.866344047901D+00
    -6.882939487696D-06 1.829850603826D-03 9.506940841675D-06 5.282606054306D+03
     2.628000000000D+05-9.313225746155D-10 2.255467754268D+00 5.122274160385D-09
     9.900856307092D-01 1.840937500000D+02-2.107264971564D+00-6.488484416423D-09
    -1.110760580736D-10                    7.520000000000D+02                   
     2.000000000000D+00 0.000000000000D+00 3.999999886872D-09 1.099999979992D-09
     2.628000000000D+05 0.000000000000D+00                                      
C12 2020 06 02 23 00 00 3.898832947016D-04 1.056577048075D-11 0.000000000000D+00
     1.000000000000D+00-1.329218750000D+02 3.234420509202D-09-3.060841082420D+00
    -6.735790520906D-06 9.306679712608D-04 9.629875421524D-06 5.282620929718D+03
     2.556000000000D+05-1.490116119385D-08 2.244549295905D+00-1.396983861923D-08
     9.888058114567D-01 1.833281250000D+02-2.090452847821D+00-6.514556893933D-09
    -1.417916201119D-10                    7.520000000000D+02                   
     2.000000000000D+00 0.000000000000D+00 2.700000001354D-09-5.999999941331D-10
     2.556000000000D+05 0.000000000000D+00                                      
C13 2020 06 03 02 00 00 4.699167329818D-04 2.033750945429D-11 0.000000000000D+00
     5.000000000000D+00-1.366093750000D+02 4.471614745150D-10 1.889717286927D+00
    -3.981404006481D-06 3.695749328472D-03 2.548517659307D-05 6.493684198380D+03
     2.664000000000D+05-1.313164830208D-07 2.997451187485D+00-5.541369318962D-08
     9.959044970883D-01-5.354687500000D+02-2.655544365488D+00-1.596495047274D-09
     8.268201678874D-10                    7.520000000000D+02                   
     2.000000000000D+00 0.000000000000D+00-9.599999906129D-09 2.399999976532D-09
     2.664000000000D+05 0.000000000000D+00                                      
C14 2020 06 02 22 00 00 4.831419792026D-04 4.752820359499D-11 0.000000000000D+00
     2.000000000000D+00-2.357812500000D+01 4.437684886227D-09-1.521937971648D+00
    -1.101288944483D-06 1.558990101330D-03 4.076864570379D-06 5.282610248566D+03
     2.520000000000D+05 3.073364496231D-08-1.957661237066D+00-1.015141606331D-07
     9.604439875129D-01 2.762500000000D+02-6.941061518959D-01-7.243516009225D-09
    -1.946509620154D-10                    7.520000000000D+02                   
     2.000000000000D+00 0.000000000000D+00 6.000000052353D-09 9.000000189552D-10
     2.520000000000D+05 1.000000000000D+00                                      
